#dP2021  6 17 12  0  0.00000000      96 __u+U ITR00 EXT  IAC
## 2162 388800.00000000   900.00000000 59382 0.5000000000000
+  116   C06C07C08C09C10C11C12C13C14C16C19C20C21C22C23C24C25
+        C26C27C28C29C30C32C33C34C35C36C37C38C39C40C41C42C43
+        C44C45C46E01E02E03E04E05E07E08E09E11E12E13E14E15E18
+        E19E21E24E25E26E27E30E31E33E36G01G02G03G04G05G06G07
+        G08G09G10G12G13G14G15G16G17G18G19G20G21G22G23G24G25
+        G26G27G28G29G30G31G32J01J02J03R01R02R03R04R05R07R08
+        R09R11R12R13R14R15R16R17R18R19R20R21R22R24  0  0  0
++        10 11 12  9 11  9  8 11  8 10  9  8  9  8  7  8  9
++         9  9  8 10  9  8  8  7 10  9  9 11  8 10  9  9  8
++         9  9  9  7  8  8  8  7  9  7  7  7  8  9  7  8  7
++         7  7  8  8  7  8  7  7  7  8  6  7  7  7  8  7  8
++         7  7  8  7  8  7  7  8  6  7  7  8  7  7  8  6  9
++         7  7  7  7  6  8  7 11 10  9  8  8  9  9  8  9  7
++        11  7  7  9  7  9  9  9  8  7  9  9  8  9  0  0  0
%c M  cc GPS ccc cccc cccc cccc cccc ccccc ccccc ccccc ccccc
%c cc cc ccc ccc cccc cccc cccc cccc ccccc ccccc ccccc ccccc
%f  0.0000000  0.000000000  0.00000000000  0.000000000000000
%f  0.0000000  0.000000000  0.00000000000  0.000000000000000
%i    0    0    0    0      0      0      0      0         0
%i    0    0    0    0      0      0      0      0         0
/* IAC                                ULTRA-RAPID PREDICTION
/* S/V CLOCKS ARE ALIGNED TO GNSS TIME                      
/* G:C1WC2W R:C1PC2P E:C1XC5X C:C2IC6I J:C1CC2S             
/* PCV:IGS14_2148 OL/AL:FES2004  NONE     YN ORB:CoN CLK:CoN
*  2021 06 17 14  0  0.00000000
PC06  -7304.420894  31151.080478  28190.691714    514.172009
PC07 -20501.755078  23662.551873 -28205.949885     63.920658
PC08 -20333.354679  36548.730166   3601.884664   -895.121736
PC09   3909.534480  38762.101554  16982.707087    441.408855
PC10  -3902.856988  26442.990411 -32413.867641    -28.851380
PC11  -3876.676194 -26355.206733   8437.744683    405.147713
PC12   8866.988917 -15847.784967  21221.446868    841.356488
PC13 -11489.923081  37695.008924  14746.804725    303.307115
PC14  -1292.920203 -16121.676082 -22718.814800    892.597133
PC16  -4462.886810  32483.757093  26761.640194   -904.793173
PC19  12341.625049  15464.102400  19698.995962    875.863869
PC20  -8134.695773  14507.118833  22432.123566   -873.596592
PC21  24787.932923  -4761.190000 -11849.993556   -935.442903
PC22  26306.903836   7514.458571   5410.931694   -949.872947
PC23 -16846.145290  -4014.268310  21892.390543   -938.731493
PC24  13841.552830 -23614.793040   5483.040368   -897.249274
PC25  -3222.622226 -19280.842702  19919.477213   -899.601137
PC26  20985.296602 -14962.803461 -10745.666085    891.437142
PC27 -14513.974743   6458.765028 -22966.261952    549.797094
PC28 -17595.760717 -13827.488635 -16677.256752    -61.235268
PC29  11311.179300  25504.722335    608.525892    407.349676
PC30  -2500.519625  22659.502130 -16118.714578    470.999958
PC32 -24779.535051   4970.604384  11869.722240   -924.972860
PC33 -12405.424810 -15416.102471 -19677.155103   -937.212008
PC34   2010.313563 -23065.378551  15548.488199   -648.350380
PC35  18077.621963  13565.736375  16379.570435   -229.026956
PC36   2431.662629  19558.872684 -19727.832398   -727.898021
PC37 -21403.401668  13696.573910  11540.218272   -874.201982
PC38 -18150.694943  37554.183718   5590.726706    155.873275
PC39   -964.715631  33421.677876  25791.644985     31.847632
PC40 -11134.155105  21089.025437 -34768.899007    171.881270
PC41 -26251.737733  -7576.104121  -5626.849248   -948.590835
PC42   8934.422071 -14308.791076 -22180.213004   -913.950064
PC43 -10886.857181 -25681.382684   -122.531021   -780.571407
PC44  14508.259613  -6722.800739  22857.016299    244.129826
PC45  16841.578243   3756.261860 -21925.849725    469.664051
PC46 -13087.706175  23761.612498  -6467.064287    220.149885
PE01 -18671.492046  18434.860465 -13697.959911  -1131.189015
PE02  18568.331992 -18468.616870  13805.371506    226.738984
PE03   7907.310006 -15304.759827 -24067.064017   -442.945217
PE04  11681.112122  22161.472780  15774.937647   -794.351231
PE05  23197.201994    667.147066 -18363.357684   -272.228750
PE07 -24796.533386 -16050.978842   2045.750213   -550.964143
PE08 -12178.806373 -22036.301248 -15570.105609   5984.557736
PE09  24895.048302  15841.573373  -2197.501012   5630.590069
PE11  13340.813608  14114.136645  22329.720439   5839.090364
PE12   2391.471104  28492.831843   7688.926463   5155.617017
PE13 -13166.414774 -14486.223094 -22202.065275    417.863869
PE14 -15760.680661 -23188.776879   3498.157915  -1469.307639
PE15  -2495.212959 -28455.745527  -7748.443240    808.321264
PE18   4049.272394  24430.448927 -14886.402735  -1609.399875
PE19 -10057.796977  13672.038857  24261.784879    304.545290
PE21 -27738.759190   9547.975987   3957.556038   -671.189886
PE24  20528.287563   6048.986470 -20466.367534   -959.701872
PE25  27753.500134  -9416.095620  -4145.273108   -537.209069
PE26 -16165.211269   8841.574188 -23168.776711   1682.733871
PE27 -21150.359391  -5291.209972  20023.938701    -56.257472
PE30  -1010.077905 -17318.019339  23978.407240   2856.211888
PE31   2178.392346  16903.722620 -24192.260704   -482.304715
PE33  -9621.836583  25645.761124 -11233.252717   -469.040690
PE36  16060.418369  -7964.885831  23549.574962   -222.190219
PG01  13673.205249 -19503.302032  11112.855389    655.664990
PG02 -14406.384152  -3651.969436 -21363.194768   -613.048463
PG03  20825.793907 -12543.258033 -10644.450184   -194.560306
PG04  10600.094771 -10968.252198 -21733.726037   -200.123837
PG05 -26005.690271   5218.560303  -2869.667812    -45.216916
PG06  -8769.763130 -15787.477986 -19399.730680     28.090370
PG07   5881.743778 -25532.368972   2490.510889    180.524662
PG08  17739.768099  -1465.036449  19795.824610    -25.426130
PG09   -312.313096 -19070.510184 -18535.032659   -351.540160
PG10   8524.075340  13156.231338  21591.986484   -144.156232
PG12 -22359.254146  10515.332517  -9810.273374    -56.239371
PG13 -19520.909065  -7966.416574  16104.830255    146.058472
PG14  -7843.330939 -13763.814793  21316.475468     67.270336
PG15 -17783.251334   3801.874533  19101.174046   -141.755016
PG16  25734.208485   1393.901220  -7590.104850   -342.735219
PG17 -11914.408532 -22473.910005   8058.153898    459.890173
PG18  -4381.472601  25628.494499   5223.580856    346.282855
PG19 -17130.480300 -20335.888037  -1764.262529     14.577288
PG20 -25151.579716   5934.583230  -5346.762135    521.081425
PG21  15631.341838 -12371.579093  18006.668648    125.620261
PG22  24690.275542  -9420.555362   -969.315836   -586.175243
PG23  -4513.671221  16041.974815  20647.891901     95.785312
PG24 -14781.629512  15679.912142  15016.696934    136.442115
PG25 -11854.719641  15780.025549 -17907.578335    157.528071
PG26  20324.144968   6308.463445 -16114.481008     99.533467
PG27  21200.903752   9356.928105  13124.830217   -148.622517
PG28 -13680.335849 -11767.142281  19975.026245    553.121876
PG29  -1642.207317  18213.160421 -19292.385469   -365.618039
PG30  -3307.655418 -22471.873784  13636.490454   -440.085366
PG31  10911.766785  13046.263548 -20365.579126   -123.581628
PG32  15217.706596  21230.015203   5410.331599     18.138305
PJ01 -29139.942417  20836.014404  27306.905596   -397.586213
PJ02 -35910.951682  21031.516091  -2453.008648     -0.291057
PJ03 -18939.793339  25913.168277 -22786.577610     -8.343939
PR01 -16127.073312   4605.952620  19231.658380     81.006140
PR02   4909.183341  12556.265750  21711.792762    482.710630
PR03  20263.022756  11927.860896   9998.231853     37.857521
PR04  24014.996103   4680.966440  -7189.908973     91.713720
PR05  14452.437363  -5103.290022 -20380.781727     73.724977
PR07 -20634.302923 -11712.442903  -9269.113345    -42.312313
PR08 -24006.422866  -4502.468952   7382.662901    -59.559699
PR09   6599.827677 -17453.836158  17372.219675     -1.616327
PR11 -18853.944237   7104.855793  15665.228800    -12.893201
PR12 -18599.255811  17379.652103  -1476.362567    237.935353
PR13  -7384.241393  17576.028483 -16962.581329    -56.378233
PR14   8707.505286   7046.363575 -22901.779249     65.444931
PR15  19170.994223  -7195.275295 -15185.607936    103.202173
PR16  17797.459411 -18184.982048   2561.006491    -16.474638
PR17   9642.482911  20033.945451  12469.852493    433.435559
PR18  11138.077971   4584.669088  22500.393831     80.359418
PR19   7426.101388 -12456.001646  20978.737383   -148.098949
PR20  -1527.875932 -24851.979896   5442.927803    -51.022070
PR21  -9849.775875 -19266.832706 -13535.910625   -217.213113
PR22 -10954.941910  -3358.914566 -22798.666688   -118.147462
PR24   2196.270323  24973.652194  -4662.498910     46.889110
EOF
